STARLINK-36133          
1 66963U 25288E   26005.38843048  .00147144  00000+0  24558-2 0  9992
2 66963  43.0026  25.5067 0001830 252.7026 107.3634 15.50707640  5552
STARLINK-36104          
1 66964U 25288F   26003.39157045  .00186583  00000+0  31071-2 0  9995
2 66964  43.0002  37.1830 0001175 251.1223 108.9510 15.50614564  5246
STARLINK-36067          
1 66965U 25288G   26005.35506778  .00059525  00000+0  14209-2 0  9994
2 66965  43.0024  26.1219 0001168 248.4223 111.6509 15.40705400  5542
STARLINK-36139          
1 66966U 25288H   26003.39054143  .00006042  00000+0  10872-3 0  9990
2 66966  43.0008  37.1755 0001194 265.8729  94.1994 15.50583166  5249
STARLINK-36136          
1 66967U 25288J   26003.45463087  .00048386  00000+0  82795-3 0  9999
2 66967  43.0002  36.7963 0002957 279.5591  80.4935 15.50492784  5256
STARLINK-36152          
1 66968U 25288K   26005.32230837  .00167768  00000+0  27927-2 0  9994
2 66968  43.0004  25.8683 0001393 237.0476 123.0250 15.50699196  5543
STARLINK-36149          
1 66969U 25288L   26005.42438179  .00056185  00000+0  13414-2 0  9991
2 66969  43.0025  25.7812 0001264 265.9107  94.1605 15.40721490  5553
STARLINK-35703          
1 66970U 25288M   26005.50002314 -.02750762  00000+0 -68100-1 0  9997
2 66970  43.0007  24.8397 0001200 235.9712  32.9334 15.43755752  5642
STARLINK-35678          
1 66971U 25288N   26005.38637594  .00116901  00000+0  19620-2 0  9999
2 66971  43.0008  25.4896 0002419 259.9040 100.1547 15.50675384  5552
STARLINK-34846          
1 66972U 25288P   26005.50002314 -.01093392  00000+0 -27832-1 0  9994
2 66972  43.0009  24.8974 0001373 273.5219 332.7957 15.41460088  5643
STARLINK-35778          
1 66973U 25288Q   26005.35059399  .00101205  00000+0  23960-2 0  9992
2 66973  43.0027  26.0863 0001197 266.7245  93.3474 15.40724652  5544
STARLINK-35780          
1 66974U 25288R   26005.50002314  .00129260  00000+0  30588-2 0  9990
2 66974  43.0006  25.1686 0001527 272.1755 222.5730 15.40607329  5642
