CCSDS_OMM_VERS = 2.0
CREATION_DATE  = 
ORIGINATOR     = 

OBJECT_NAME    = STARLINK-36133
OBJECT_ID      = 2025-288E
CENTER_NAME    = EARTH
REF_FRAME      = TEME
TIME_SYSTEM    = UTC
MEAN_ELEMENT_THEORY = SGP/SGP4

EPOCH          = 2026-01-05T09:19:20.393472
MEAN_MOTION    = 15.50707640
ECCENTRICITY   = .000183
INCLINATION    = 43.0026
RA_OF_ASC_NODE = 25.5067
ARG_OF_PERICENTER = 252.7026
MEAN_ANOMALY   = 107.3634

EPHEMERIS_TYPE = 0
CLASSIFICATION_TYPE = U
NORAD_CAT_ID   = 66963
ELEMENT_SET_NO = 999
REV_AT_EPOCH   = 555
BSTAR          = .24558E-2
MEAN_MOTION_DOT = .147144E-2
MEAN_MOTION_DDOT = 0

CCSDS_OMM_VERS = 2.0
CREATION_DATE  = 
ORIGINATOR     = 

OBJECT_NAME    = STARLINK-36104
OBJECT_ID      = 2025-288F
CENTER_NAME    = EARTH
REF_FRAME      = TEME
TIME_SYSTEM    = UTC
MEAN_ELEMENT_THEORY = SGP/SGP4

EPOCH          = 2026-01-03T09:23:51.686880
MEAN_MOTION    = 15.50614564
ECCENTRICITY   = .00011758
INCLINATION    = 43.0002
RA_OF_ASC_NODE = 37.1830
ARG_OF_PERICENTER = 251.1223
MEAN_ANOMALY   = 108.9510

EPHEMERIS_TYPE = 0
CLASSIFICATION_TYPE = U
NORAD_CAT_ID   = 66964
ELEMENT_SET_NO = 999
REV_AT_EPOCH   = 524
BSTAR          = .31070829E-2
MEAN_MOTION_DOT = .186583E-2
MEAN_MOTION_DDOT = 0

CCSDS_OMM_VERS = 2.0
CREATION_DATE  = 
ORIGINATOR     = 

OBJECT_NAME    = STARLINK-36067
OBJECT_ID      = 2025-288G
CENTER_NAME    = EARTH
REF_FRAME      = TEME
TIME_SYSTEM    = UTC
MEAN_ELEMENT_THEORY = SGP/SGP4

EPOCH          = 2026-01-05T08:31:17.856192
MEAN_MOTION    = 15.40705400
ECCENTRICITY   = .0001168
INCLINATION    = 43.0024
RA_OF_ASC_NODE = 26.1219
ARG_OF_PERICENTER = 248.4223
MEAN_ANOMALY   = 111.6509

EPHEMERIS_TYPE = 0
CLASSIFICATION_TYPE = U
NORAD_CAT_ID   = 66965
ELEMENT_SET_NO = 999
REV_AT_EPOCH   = 554
BSTAR          = .14209E-2
MEAN_MOTION_DOT = .59525E-3
MEAN_MOTION_DDOT = 0

CCSDS_OMM_VERS = 2.0
CREATION_DATE  = 
ORIGINATOR     = 

OBJECT_NAME    = STARLINK-36139
OBJECT_ID      = 2025-288H
CENTER_NAME    = EARTH
REF_FRAME      = TEME
TIME_SYSTEM    = UTC
MEAN_ELEMENT_THEORY = SGP/SGP4

EPOCH          = 2026-01-03T09:22:22.779552
MEAN_MOTION    = 15.50583166
ECCENTRICITY   = .00011941
INCLINATION    = 43.0008
RA_OF_ASC_NODE = 37.1755
ARG_OF_PERICENTER = 265.8729
MEAN_ANOMALY   = 94.1994

EPHEMERIS_TYPE = 0
CLASSIFICATION_TYPE = U
NORAD_CAT_ID   = 66966
ELEMENT_SET_NO = 999
REV_AT_EPOCH   = 524
BSTAR          = .10872199E-3
MEAN_MOTION_DOT = .6042E-4
MEAN_MOTION_DDOT = 0

CCSDS_OMM_VERS = 2.0
CREATION_DATE  = 
ORIGINATOR     = 

OBJECT_NAME    = STARLINK-36136
OBJECT_ID      = 2025-288J
CENTER_NAME    = EARTH
REF_FRAME      = TEME
TIME_SYSTEM    = UTC
MEAN_ELEMENT_THEORY = SGP/SGP4

EPOCH          = 2026-01-03T10:54:40.107168
MEAN_MOTION    = 15.50492784
ECCENTRICITY   = .00029574
INCLINATION    = 43.0002
RA_OF_ASC_NODE = 36.7963
ARG_OF_PERICENTER = 279.5591
MEAN_ANOMALY   = 80.4935

EPHEMERIS_TYPE = 0
CLASSIFICATION_TYPE = U
NORAD_CAT_ID   = 66967
ELEMENT_SET_NO = 999
REV_AT_EPOCH   = 525
BSTAR          = .82795197E-3
MEAN_MOTION_DOT = .48386E-3
MEAN_MOTION_DDOT = 0

CCSDS_OMM_VERS = 2.0
CREATION_DATE  = 
ORIGINATOR     = 

OBJECT_NAME    = STARLINK-36152
OBJECT_ID      = 2025-288K
CENTER_NAME    = EARTH
REF_FRAME      = TEME
TIME_SYSTEM    = UTC
MEAN_ELEMENT_THEORY = SGP/SGP4

EPOCH          = 2026-01-05T07:44:07.443168
MEAN_MOTION    = 15.50699196
ECCENTRICITY   = .0001393
INCLINATION    = 43.0004
RA_OF_ASC_NODE = 25.8683
ARG_OF_PERICENTER = 237.0476
MEAN_ANOMALY   = 123.0250

EPHEMERIS_TYPE = 0
CLASSIFICATION_TYPE = U
NORAD_CAT_ID   = 66968
ELEMENT_SET_NO = 999
REV_AT_EPOCH   = 554
BSTAR          = .27927E-2
MEAN_MOTION_DOT = .167768E-2
MEAN_MOTION_DDOT = 0

CCSDS_OMM_VERS = 2.0
CREATION_DATE  = 
ORIGINATOR     = 

OBJECT_NAME    = STARLINK-36149
OBJECT_ID      = 2025-288L
CENTER_NAME    = EARTH
REF_FRAME      = TEME
TIME_SYSTEM    = UTC
MEAN_ELEMENT_THEORY = SGP/SGP4

EPOCH          = 2026-01-05T10:11:06.586656
MEAN_MOTION    = 15.40721490
ECCENTRICITY   = .0001264
INCLINATION    = 43.0025
RA_OF_ASC_NODE = 25.7812
ARG_OF_PERICENTER = 265.9107
MEAN_ANOMALY   = 94.1605

EPHEMERIS_TYPE = 0
CLASSIFICATION_TYPE = U
NORAD_CAT_ID   = 66969
ELEMENT_SET_NO = 999
REV_AT_EPOCH   = 555
BSTAR          = .13414E-2
MEAN_MOTION_DOT = .56185E-3
MEAN_MOTION_DDOT = 0

CCSDS_OMM_VERS = 2.0
CREATION_DATE  = 
ORIGINATOR     = 

OBJECT_NAME    = STARLINK-35703
OBJECT_ID      = 2025-288M
CENTER_NAME    = EARTH
REF_FRAME      = TEME
TIME_SYSTEM    = UTC
MEAN_ELEMENT_THEORY = SGP/SGP4

EPOCH          = 2026-01-05T12:00:01.999296
MEAN_MOTION    = 15.43755752
ECCENTRICITY   = .00012
INCLINATION    = 43.0007
RA_OF_ASC_NODE = 24.8397
ARG_OF_PERICENTER = 235.9712
MEAN_ANOMALY   = 32.9334

EPHEMERIS_TYPE = 0
CLASSIFICATION_TYPE = U
NORAD_CAT_ID   = 66970
ELEMENT_SET_NO = 999
REV_AT_EPOCH   = 564
BSTAR          = -.681E-1
MEAN_MOTION_DOT = -.2750762E-1
MEAN_MOTION_DDOT = 0

CCSDS_OMM_VERS = 2.0
CREATION_DATE  = 
ORIGINATOR     = 

OBJECT_NAME    = STARLINK-35678
OBJECT_ID      = 2025-288N
CENTER_NAME    = EARTH
REF_FRAME      = TEME
TIME_SYSTEM    = UTC
MEAN_ELEMENT_THEORY = SGP/SGP4

EPOCH          = 2026-01-05T09:16:22.881216
MEAN_MOTION    = 15.50675384
ECCENTRICITY   = .0002419
INCLINATION    = 43.0008
RA_OF_ASC_NODE = 25.4896
ARG_OF_PERICENTER = 259.9040
MEAN_ANOMALY   = 100.1547

EPHEMERIS_TYPE = 0
CLASSIFICATION_TYPE = U
NORAD_CAT_ID   = 66971
ELEMENT_SET_NO = 999
REV_AT_EPOCH   = 555
BSTAR          = .1962E-2
MEAN_MOTION_DOT = .116901E-2
MEAN_MOTION_DDOT = 0

CCSDS_OMM_VERS = 2.0
CREATION_DATE  = 
ORIGINATOR     = 

OBJECT_NAME    = STARLINK-34846
OBJECT_ID      = 2025-288P
CENTER_NAME    = EARTH
REF_FRAME      = TEME
TIME_SYSTEM    = UTC
MEAN_ELEMENT_THEORY = SGP/SGP4

EPOCH          = 2026-01-05T12:00:01.999296
MEAN_MOTION    = 15.41460088
ECCENTRICITY   = .0001373
INCLINATION    = 43.0009
RA_OF_ASC_NODE = 24.8974
ARG_OF_PERICENTER = 273.5219
MEAN_ANOMALY   = 332.7957

EPHEMERIS_TYPE = 0
CLASSIFICATION_TYPE = U
NORAD_CAT_ID   = 66972
ELEMENT_SET_NO = 999
REV_AT_EPOCH   = 564
BSTAR          = -.27832E-1
MEAN_MOTION_DOT = -.1093392E-1
MEAN_MOTION_DDOT = 0

CCSDS_OMM_VERS = 2.0
CREATION_DATE  = 
ORIGINATOR     = 

OBJECT_NAME    = STARLINK-35778
OBJECT_ID      = 2025-288Q
CENTER_NAME    = EARTH
REF_FRAME      = TEME
TIME_SYSTEM    = UTC
MEAN_ELEMENT_THEORY = SGP/SGP4

EPOCH          = 2026-01-05T08:24:51.320736
MEAN_MOTION    = 15.40724652
ECCENTRICITY   = .0001197
INCLINATION    = 43.0027
RA_OF_ASC_NODE = 26.0863
ARG_OF_PERICENTER = 266.7245
MEAN_ANOMALY   = 93.3474

EPHEMERIS_TYPE = 0
CLASSIFICATION_TYPE = U
NORAD_CAT_ID   = 66973
ELEMENT_SET_NO = 999
REV_AT_EPOCH   = 554
BSTAR          = .2396E-2
MEAN_MOTION_DOT = .101205E-2
MEAN_MOTION_DDOT = 0

CCSDS_OMM_VERS = 2.0
CREATION_DATE  = 
ORIGINATOR     = 

OBJECT_NAME    = STARLINK-35780
OBJECT_ID      = 2025-288R
CENTER_NAME    = EARTH
REF_FRAME      = TEME
TIME_SYSTEM    = UTC
MEAN_ELEMENT_THEORY = SGP/SGP4

EPOCH          = 2026-01-05T12:00:01.999296
MEAN_MOTION    = 15.40607329
ECCENTRICITY   = .0001527
INCLINATION    = 43.0006
RA_OF_ASC_NODE = 25.1686
ARG_OF_PERICENTER = 272.1755
MEAN_ANOMALY   = 222.5730

EPHEMERIS_TYPE = 0
CLASSIFICATION_TYPE = U
NORAD_CAT_ID   = 66974
ELEMENT_SET_NO = 999
REV_AT_EPOCH   = 564
BSTAR          = .30588E-2
MEAN_MOTION_DOT = .12926E-2
MEAN_MOTION_DDOT = 0

